{
  "norad_id": 62525,
  "name": "STARLINK-32777",
  "history": [
    {
      "epoch": "2026-03-28T18:38:01.981248",
      "apogee_km": 483.6869061746793,
      "perigee_km": 482.4114116677365,
      "latitude_deg": -41.70405126278983,
      "longitude_deg": 147.03553471993655,
      "semi_major_axis_km": 6861.186158921208,
      "eccentricity": 9.295e-05,
      "inclination_deg": 43.0022,
      "raan_deg": 112.4316,
      "arg_perigee_deg": 260.0373,
      "mean_anomaly_deg": 100.0374,
      "mean_motion_rev_day": 15.27579979
    },
    {
      "epoch": "2026-03-29T02:28:48.501696",
      "apogee_km": 483.7365343655729,
      "perigee_km": 482.2243440819693,
      "latitude_deg": -29.773410156767735,
      "longitude_deg": 178.42055744002573,
      "semi_major_axis_km": 6861.117439223771,
      "eccentricity": 0.0001102,
      "inclination_deg": 43.0014,
      "raan_deg": 110.5852,
      "arg_perigee_deg": 255.2383,
      "mean_anomaly_deg": 104.8347,
      "mean_motion_rev_day": 15.27602929
    }
  ]
}